STARLINK-36704          
1 67697U 26025E   26063.25924842  .00190581  00000+0  12458-2 0  9998
2 67697  97.2844 174.5454 0001732  93.2377 266.9087 15.75273235  5086
STARLINK-36697          
1 67698U 26025F   26063.29260263  .00271217  00000+0  13654-2 0  9998
2 67698  97.2846 174.6551 0001707  35.7420 324.3963 15.80940136  5090
STARLINK-36716          
1 67699U 26025G   26063.50001157 -.00035890  00000+0 -24069-3 0  9998
2 67699  97.2853 174.8702 0000693  75.2374  17.1772 15.75197766  5181
STARLINK-36712          
1 67700U 26025H   26063.24936666  .00568434  00000+0  35300-2 0  9996
2 67700  97.2843 174.5589 0001035 136.8233 223.3114 15.75410807  5086
STARLINK-36713          
1 67701U 26025J   26063.56878692  .00268837  00000+0  17457-2 0  9993
2 67701  97.2853 174.8896 0001618  59.4966 300.6459 15.75208822  5142
STARLINK-36695          
1 67702U 26025K   26063.25325226  .00651514  00000+0  39989-2 0  9992
2 67702  97.2852 174.5516 0001351 137.5364 222.6006 15.75452079  5081
STARLINK-36630          
1 67703U 26025L   26063.28465923  .00173374  00000+0  88510-3 0  9993
2 67703  97.2851 174.6635 0002065 101.8148 258.3352 15.80886698  5096
STARLINK-36338          
1 67704U 26025M   26063.50001157  .00057827  00000+0  38742-3 0  9990
2 67704  97.2849 174.8628 0001359 128.4437 312.0336 15.75101892  5077
STARLINK-36316          
1 67705U 26025N   26063.30513056  .00271453  00000+0  17620-2 0  9999
2 67705  97.2857 174.6360 0001598  22.7500 337.3836 15.75210312  5095
STARLINK-36707          
1 67706U 26025P   26063.50001157  .00011079  00000+0  75209-4 0  9991
2 67706  97.2852 174.8872 0001365  75.0020  61.4505 15.75141223  4867
STARLINK-36645          
1 67707U 26025Q   26063.24548375  .00671799  00000+0  41089-2 0  9999
2 67707  97.2854 174.5635 0001259 100.0946 260.0462 15.75476666  5088
STARLINK-36287          
1 67708U 26025R   26063.52850804 -.00345981  00000+0 -19403-2 0  9992
2 67708  97.2854 174.9426 0000197 301.1750  58.9499 15.80105527  5140
STARLINK-36698          
1 67709U 26025S   26063.52146280  .00270248  00000+0  13657-2 0  9995
2 67709  97.2850 174.9518 0000654 137.5407 222.5912 15.80857616  5138
STARLINK-36344          
1 67710U 26025T   26063.50001157 -.00005267  00000+0 -34532-4 0  9994
2 67710  97.2849 174.8971 0001188  90.0393  70.4053 15.75147431  5182
STARLINK-36687          
1 67711U 26025U   26063.27055094  .00305453  00000+0  15305-2 0  9991
2 67711  97.2852 174.6803 0001079  86.8013 273.3379 15.80954168  5106
STARLINK-36705          
1 67712U 26025V   26063.54336217  .00402785  00000+0  25600-2 0  9996
2 67712  97.2867 174.9185 0000927 115.3602 244.7760 15.75333169  5137
