[{"OBJECT_NAME":"STARLINK-36704","OBJECT_ID":"2026-025E","EPOCH":"2026-03-04T06:13:19.063488","MEAN_MOTION":15.75273235,"ECCENTRICITY":0.00017321,"INCLINATION":97.2844,"RA_OF_ASC_NODE":174.5454,"ARG_OF_PERICENTER":93.2377,"MEAN_ANOMALY":266.9087,"EPHEMERIS_TYPE":0,"CLASSIFICATION_TYPE":"U","NORAD_CAT_ID":67697,"ELEMENT_SET_NO":999,"REV_AT_EPOCH":508,"BSTAR":0.0012458004,"MEAN_MOTION_DOT":0.00190581,"MEAN_MOTION_DDOT":0},{"OBJECT_NAME":"STARLINK-36697","OBJECT_ID":"2026-025F","EPOCH":"2026-03-04T07:01:20.867232","MEAN_MOTION":15.80940136,"ECCENTRICITY":0.00017073,"INCLINATION":97.2846,"RA_OF_ASC_NODE":174.6551,"ARG_OF_PERICENTER":35.742,"MEAN_ANOMALY":324.3963,"EPHEMERIS_TYPE":0,"CLASSIFICATION_TYPE":"U","NORAD_CAT_ID":67698,"ELEMENT_SET_NO":999,"REV_AT_EPOCH":509,"BSTAR":0.0013653571,"MEAN_MOTION_DOT":0.00271217,"MEAN_MOTION_DDOT":0},{"OBJECT_NAME":"STARLINK-36716","OBJECT_ID":"2026-025G","EPOCH":"2026-03-04T12:00:00.999648","MEAN_MOTION":15.75197766,"ECCENTRICITY":6.936e-5,"INCLINATION":97.2853,"RA_OF_ASC_NODE":174.8702,"ARG_OF_PERICENTER":75.2374,"MEAN_ANOMALY":17.1772,"EPHEMERIS_TYPE":0,"CLASSIFICATION_TYPE":"U","NORAD_CAT_ID":67699,"ELEMENT_SET_NO":999,"REV_AT_EPOCH":518,"BSTAR":-0.00024069307,"MEAN_MOTION_DOT":-0.0003589,"MEAN_MOTION_DDOT":0},{"OBJECT_NAME":"STARLINK-36712","OBJECT_ID":"2026-025H","EPOCH":"2026-03-04T05:59:05.279424","MEAN_MOTION":15.75410807,"ECCENTRICITY":0.0001035,"INCLINATION":97.2843,"RA_OF_ASC_NODE":174.5589,"ARG_OF_PERICENTER":136.8233,"MEAN_ANOMALY":223.3114,"EPHEMERIS_TYPE":0,"CLASSIFICATION_TYPE":"U","NORAD_CAT_ID":67700,"ELEMENT_SET_NO":999,"REV_AT_EPOCH":508,"BSTAR":0.0035299719,"MEAN_MOTION_DOT":0.00568434,"MEAN_MOTION_DDOT":0},{"OBJECT_NAME":"STARLINK-36713","OBJECT_ID":"2026-025J","EPOCH":"2026-03-04T13:39:03.189888","MEAN_MOTION":15.75208822,"ECCENTRICITY":0.00016181,"INCLINATION":97.2853,"RA_OF_ASC_NODE":174.8896,"ARG_OF_PERICENTER":59.4966,"MEAN_ANOMALY":300.6459,"EPHEMERIS_TYPE":0,"CLASSIFICATION_TYPE":"U","NORAD_CAT_ID":67701,"ELEMENT_SET_NO":999,"REV_AT_EPOCH":514,"BSTAR":0.0017456948,"MEAN_MOTION_DOT":0.00268837,"MEAN_MOTION_DDOT":0},{"OBJECT_NAME":"STARLINK-36695","OBJECT_ID":"2026-025K","EPOCH":"2026-03-04T06:04:40.995264","MEAN_MOTION":15.75452079,"ECCENTRICITY":0.00013518,"INCLINATION":97.2852,"RA_OF_ASC_NODE":174.5516,"ARG_OF_PERICENTER":137.5364,"MEAN_ANOMALY":222.6006,"EPHEMERIS_TYPE":0,"CLASSIFICATION_TYPE":"U","NORAD_CAT_ID":67702,"ELEMENT_SET_NO":999,"REV_AT_EPOCH":508,"BSTAR":0.0039988683,"MEAN_MOTION_DOT":0.00651514,"MEAN_MOTION_DDOT":0},{"OBJECT_NAME":"STARLINK-36630","OBJECT_ID":"2026-025L","EPOCH":"2026-03-04T06:49:54.557472","MEAN_MOTION":15.80886698,"ECCENTRICITY":0.00020658,"INCLINATION":97.2851,"RA_OF_ASC_NODE":174.6635,"ARG_OF_PERICENTER":101.8148,"MEAN_ANOMALY":258.3352,"EPHEMERIS_TYPE":0,"CLASSIFICATION_TYPE":"U","NORAD_CAT_ID":67703,"ELEMENT_SET_NO":999,"REV_AT_EPOCH":509,"BSTAR":0.00088510392,"MEAN_MOTION_DOT":0.00173374,"MEAN_MOTION_DDOT":0},{"OBJECT_NAME":"STARLINK-36338","OBJECT_ID":"2026-025M","EPOCH":"2026-03-04T12:00:00.999648","MEAN_MOTION":15.75101892,"ECCENTRICITY":0.00013596,"INCLINATION":97.2849,"RA_OF_ASC_NODE":174.8628,"ARG_OF_PERICENTER":128.4437,"MEAN_ANOMALY":312.0336,"EPHEMERIS_TYPE":0,"CLASSIFICATION_TYPE":"U","NORAD_CAT_ID":67704,"ELEMENT_SET_NO":999,"REV_AT_EPOCH":507,"BSTAR":0.00038741775,"MEAN_MOTION_DOT":0.00057827,"MEAN_MOTION_DDOT":0},{"OBJECT_NAME":"STARLINK-36316","OBJECT_ID":"2026-025N","EPOCH":"2026-03-04T07:19:23.280384","MEAN_MOTION":15.75210312,"ECCENTRICITY":0.00015982,"INCLINATION":97.2857,"RA_OF_ASC_NODE":174.636,"ARG_OF_PERICENTER":22.75,"MEAN_ANOMALY":337.3836,"EPHEMERIS_TYPE":0,"CLASSIFICATION_TYPE":"U","NORAD_CAT_ID":67705,"ELEMENT_SET_NO":999,"REV_AT_EPOCH":509,"BSTAR":0.0017620146,"MEAN_MOTION_DOT":0.00271453,"MEAN_MOTION_DDOT":0},{"OBJECT_NAME":"STARLINK-36707","OBJECT_ID":"2026-025P","EPOCH":"2026-03-04T12:00:00.999648","MEAN_MOTION":15.75141223,"ECCENTRICITY":0.00013651,"INCLINATION":97.2852,"RA_OF_ASC_NODE":174.8872,"ARG_OF_PERICENTER":75.002,"MEAN_ANOMALY":61.4505,"EPHEMERIS_TYPE":0,"CLASSIFICATION_TYPE":"U","NORAD_CAT_ID":67706,"ELEMENT_SET_NO":999,"REV_AT_EPOCH":486,"BSTAR":7.5209176e-5,"MEAN_MOTION_DOT":0.00011079,"MEAN_MOTION_DDOT":0},{"OBJECT_NAME":"STARLINK-36645","OBJECT_ID":"2026-025Q","EPOCH":"2026-03-04T05:53:29.796000","MEAN_MOTION":15.75476666,"ECCENTRICITY":0.00012596,"INCLINATION":97.2854,"RA_OF_ASC_NODE":174.5635,"ARG_OF_PERICENTER":100.0946,"MEAN_ANOMALY":260.0462,"EPHEMERIS_TYPE":0,"CLASSIFICATION_TYPE":"U","NORAD_CAT_ID":67707,"ELEMENT_SET_NO":999,"REV_AT_EPOCH":508,"BSTAR":0.0041089457,"MEAN_MOTION_DOT":0.00671799,"MEAN_MOTION_DDOT":0},{"OBJECT_NAME":"STARLINK-36287","OBJECT_ID":"2026-025R","EPOCH":"2026-03-04T12:41:03.094656","MEAN_MOTION":15.80105527,"ECCENTRICITY":1.971e-5,"INCLINATION":97.2854,"RA_OF_ASC_NODE":174.9426,"ARG_OF_PERICENTER":301.175,"MEAN_ANOMALY":58.9499,"EPHEMERIS_TYPE":0,"CLASSIFICATION_TYPE":"U","NORAD_CAT_ID":67708,"ELEMENT_SET_NO":999,"REV_AT_EPOCH":514,"BSTAR":-0.0019402805,"MEAN_MOTION_DOT":-0.00345981,"MEAN_MOTION_DDOT":0},{"OBJECT_NAME":"STARLINK-36698","OBJECT_ID":"2026-025S","EPOCH":"2026-03-04T12:30:54.385920","MEAN_MOTION":15.80857616,"ECCENTRICITY":6.544e-5,"INCLINATION":97.285,"RA_OF_ASC_NODE":174.9518,"ARG_OF_PERICENTER":137.5407,"MEAN_ANOMALY":222.5912,"EPHEMERIS_TYPE":0,"CLASSIFICATION_TYPE":"U","NORAD_CAT_ID":67709,"ELEMENT_SET_NO":999,"REV_AT_EPOCH":513,"BSTAR":0.0013657353,"MEAN_MOTION_DOT":0.00270248,"MEAN_MOTION_DDOT":0},{"OBJECT_NAME":"STARLINK-36344","OBJECT_ID":"2026-025T","EPOCH":"2026-03-04T12:00:00.999648","MEAN_MOTION":15.75147431,"ECCENTRICITY":0.00011882,"INCLINATION":97.2849,"RA_OF_ASC_NODE":174.8971,"ARG_OF_PERICENTER":90.0393,"MEAN_ANOMALY":70.4053,"EPHEMERIS_TYPE":0,"CLASSIFICATION_TYPE":"U","NORAD_CAT_ID":67710,"ELEMENT_SET_NO":999,"REV_AT_EPOCH":518,"BSTAR":-3.4532185e-5,"MEAN_MOTION_DOT":-5.267e-5,"MEAN_MOTION_DDOT":0},{"OBJECT_NAME":"STARLINK-36687","OBJECT_ID":"2026-025U","EPOCH":"2026-03-04T06:29:35.601216","MEAN_MOTION":15.80954168,"ECCENTRICITY":0.00010796,"INCLINATION":97.2852,"RA_OF_ASC_NODE":174.6803,"ARG_OF_PERICENTER":86.8013,"MEAN_ANOMALY":273.3379,"EPHEMERIS_TYPE":0,"CLASSIFICATION_TYPE":"U","NORAD_CAT_ID":67711,"ELEMENT_SET_NO":999,"REV_AT_EPOCH":510,"BSTAR":0.0015305428,"MEAN_MOTION_DOT":0.00305453,"MEAN_MOTION_DDOT":0},{"OBJECT_NAME":"STARLINK-36705","OBJECT_ID":"2026-025V","EPOCH":"2026-03-04T13:02:26.491488","MEAN_MOTION":15.75333169,"ECCENTRICITY":9.277e-5,"INCLINATION":97.2867,"RA_OF_ASC_NODE":174.9185,"ARG_OF_PERICENTER":115.3602,"MEAN_ANOMALY":244.776,"EPHEMERIS_TYPE":0,"CLASSIFICATION_TYPE":"U","NORAD_CAT_ID":67712,"ELEMENT_SET_NO":999,"REV_AT_EPOCH":513,"BSTAR":0.0025599759,"MEAN_MOTION_DOT":0.00402785,"MEAN_MOTION_DDOT":0}]
